[{"OBJECT_NAME":"STARLINK-3936","OBJECT_ID":"2022-053U","EPOCH":"2024-10-27T12:36:34.400160","MEAN_MOTION":15.0885242,"ECCENTRICITY":0.0001331,"INCLINATION":53.2168,"RA_OF_ASC_NODE":230.4661,"ARG_OF_PERICENTER":97.3563,"MEAN_ANOMALY":262.758,"EPHEMERIS_TYPE":0,"CLASSIFICATION_TYPE":"U","NORAD_CAT_ID":52674,"ELEMENT_SET_NO":999,"REV_AT_EPOCH":13541,"BSTAR":0.00014696,"MEAN_MOTION_DOT":2.052e-5,"MEAN_MOTION_DDOT":0},{"OBJECT_NAME":"STARLINK-3934","OBJECT_ID":"2022-053V","EPOCH":"2024-10-27T12:11:24.669888","MEAN_MOTION":15.08850071,"ECCENTRICITY":0.0001563,"INCLINATION":53.2159,"RA_OF_ASC_NODE":220.5425,"ARG_OF_PERICENTER":79.22,"MEAN_ANOMALY":280.8968,"EPHEMERIS_TYPE":0,"CLASSIFICATION_TYPE":"U","NORAD_CAT_ID":52675,"ELEMENT_SET_NO":999,"REV_AT_EPOCH":13596,"BSTAR":0.00016201,"MEAN_MOTION_DOT":2.292e-5,"MEAN_MOTION_DDOT":0},{"OBJECT_NAME":"STARLINK-4006","OBJECT_ID":"2022-053W","EPOCH":"2024-10-27T12:20:40.267680","MEAN_MOTION":15.08853361,"ECCENTRICITY":0.0001423,"INCLINATION":53.2165,"RA_OF_ASC_NODE":230.5157,"ARG_OF_PERICENTER":95.4679,"MEAN_ANOMALY":264.6475,"EPHEMERIS_TYPE":0,"CLASSIFICATION_TYPE":"U","NORAD_CAT_ID":52676,"ELEMENT_SET_NO":999,"REV_AT_EPOCH":13583,"BSTAR":3.1978e-5,"MEAN_MOTION_DOT":2.21e-6,"MEAN_MOTION_DDOT":0},{"OBJECT_NAME":"STARLINK-4028","OBJECT_ID":"2022-053X","EPOCH":"2024-10-27T12:00:48.415104","MEAN_MOTION":15.0885153,"ECCENTRICITY":0.000147,"INCLINATION":53.2174,"RA_OF_ASC_NODE":220.5742,"ARG_OF_PERICENTER":88.762,"MEAN_ANOMALY":271.3541,"EPHEMERIS_TYPE":0,"CLASSIFICATION_TYPE":"U","NORAD_CAT_ID":52677,"ELEMENT_SET_NO":999,"REV_AT_EPOCH":13553,"BSTAR":0.00017089,"MEAN_MOTION_DOT":2.434e-5,"MEAN_MOTION_DDOT":0},{"OBJECT_NAME":"STARLINK-4074","OBJECT_ID":"2022-053Y","EPOCH":"2024-10-27T12:27:19.693152","MEAN_MOTION":15.08841749,"ECCENTRICITY":0.0002079,"INCLINATION":53.2182,"RA_OF_ASC_NODE":220.6015,"ARG_OF_PERICENTER":74.3964,"MEAN_ANOMALY":285.7258,"EPHEMERIS_TYPE":0,"CLASSIFICATION_TYPE":"U","NORAD_CAT_ID":52678,"ELEMENT_SET_NO":999,"REV_AT_EPOCH":13553,"BSTAR":7.407e-5,"MEAN_MOTION_DOT":8.91e-6,"MEAN_MOTION_DDOT":0},{"OBJECT_NAME":"STARLINK-4031","OBJECT_ID":"2022-053Z","EPOCH":"2024-10-27T18:06:27.398592","MEAN_MOTION":15.08849277,"ECCENTRICITY":0.0001463,"INCLINATION":53.2166,"RA_OF_ASC_NODE":219.4421,"ARG_OF_PERICENTER":97.336,"MEAN_ANOMALY":262.7799,"EPHEMERIS_TYPE":0,"CLASSIFICATION_TYPE":"U","NORAD_CAT_ID":52679,"ELEMENT_SET_NO":999,"REV_AT_EPOCH":13557,"BSTAR":0.00023392,"MEAN_MOTION_DOT":3.438e-5,"MEAN_MOTION_DDOT":0},{"OBJECT_NAME":"STARLINK-3774","OBJECT_ID":"2022-053AA","EPOCH":"2024-10-27T11:34:15.898944","MEAN_MOTION":15.08871685,"ECCENTRICITY":0.0001292,"INCLINATION":53.2174,"RA_OF_ASC_NODE":220.4339,"ARG_OF_PERICENTER":81.9033,"MEAN_ANOMALY":278.2106,"EPHEMERIS_TYPE":0,"CLASSIFICATION_TYPE":"U","NORAD_CAT_ID":52680,"ELEMENT_SET_NO":999,"REV_AT_EPOCH":13594,"BSTAR":0.0006918,"MEAN_MOTION_DOT":0.00010749,"MEAN_MOTION_DDOT":0},{"OBJECT_NAME":"STARLINK-4068","OBJECT_ID":"2022-053AB","EPOCH":"2024-10-27T19:36:34.189632","MEAN_MOTION":15.08816786,"ECCENTRICITY":0.0001277,"INCLINATION":53.218,"RA_OF_ASC_NODE":219.1581,"ARG_OF_PERICENTER":92.6332,"MEAN_ANOMALY":267.4807,"EPHEMERIS_TYPE":0,"CLASSIFICATION_TYPE":"U","NORAD_CAT_ID":52681,"ELEMENT_SET_NO":999,"REV_AT_EPOCH":13558,"BSTAR":-4.4513e-5,"MEAN_MOTION_DOT":-9.96e-6,"MEAN_MOTION_DDOT":0},{"OBJECT_NAME":"STARLINK-4017","OBJECT_ID":"2022-053AC","EPOCH":"2024-10-27T11:55:30.882144","MEAN_MOTION":15.08853823,"ECCENTRICITY":0.0001671,"INCLINATION":53.2165,"RA_OF_ASC_NODE":220.5982,"ARG_OF_PERICENTER":82.9464,"MEAN_ANOMALY":277.1718,"EPHEMERIS_TYPE":0,"CLASSIFICATION_TYPE":"U","NORAD_CAT_ID":52682,"ELEMENT_SET_NO":999,"REV_AT_EPOCH":13594,"BSTAR":0.00038196,"MEAN_MOTION_DOT":5.798e-5,"MEAN_MOTION_DDOT":0},{"OBJECT_NAME":"STARLINK-4039","OBJECT_ID":"2022-053AD","EPOCH":"2024-10-27T19:23:42.541728","MEAN_MOTION":15.10139285,"ECCENTRICITY":0.0002335,"INCLINATION":53.2167,"RA_OF_ASC_NODE":219.1789,"ARG_OF_PERICENTER":30.4653,"MEAN_ANOMALY":329.6476,"EPHEMERIS_TYPE":0,"CLASSIFICATION_TYPE":"U","NORAD_CAT_ID":52683,"ELEMENT_SET_NO":999,"REV_AT_EPOCH":13558,"BSTAR":0.0092979,"MEAN_MOTION_DOT":0.00156478,"MEAN_MOTION_DDOT":0},{"OBJECT_NAME":"STARLINK-4014","OBJECT_ID":"2022-053AE","EPOCH":"2024-10-27T11:50:12.079968","MEAN_MOTION":15.08872282,"ECCENTRICITY":0.000106,"INCLINATION":53.2163,"RA_OF_ASC_NODE":220.6135,"ARG_OF_PERICENTER":88.2771,"MEAN_ANOMALY":271.8343,"EPHEMERIS_TYPE":0,"CLASSIFICATION_TYPE":"U","NORAD_CAT_ID":52684,"ELEMENT_SET_NO":999,"REV_AT_EPOCH":13592,"BSTAR":0.0008009,"MEAN_MOTION_DOT":0.00012493,"MEAN_MOTION_DDOT":0},{"OBJECT_NAME":"STARLINK-4029","OBJECT_ID":"2022-053AF","EPOCH":"2024-10-27T11:18:25.125696","MEAN_MOTION":15.08843792,"ECCENTRICITY":0.0002269,"INCLINATION":53.2176,"RA_OF_ASC_NODE":220.7119,"ARG_OF_PERICENTER":84.1858,"MEAN_ANOMALY":275.9393,"EPHEMERIS_TYPE":0,"CLASSIFICATION_TYPE":"U","NORAD_CAT_ID":52685,"ELEMENT_SET_NO":999,"REV_AT_EPOCH":13590,"BSTAR":9.8292e-5,"MEAN_MOTION_DOT":1.277e-5,"MEAN_MOTION_DDOT":0},{"OBJECT_NAME":"STARLINK-4005","OBJECT_ID":"2022-053AG","EPOCH":"2024-10-27T12:12:50.690592","MEAN_MOTION":15.08846378,"ECCENTRICITY":0.0001656,"INCLINATION":53.217,"RA_OF_ASC_NODE":220.8161,"ARG_OF_PERICENTER":100.3134,"MEAN_ANOMALY":259.8045,"EPHEMERIS_TYPE":0,"CLASSIFICATION_TYPE":"U","NORAD_CAT_ID":52686,"ELEMENT_SET_NO":999,"REV_AT_EPOCH":13591,"BSTAR":0.00042588,"MEAN_MOTION_DOT":6.498e-5,"MEAN_MOTION_DDOT":0},{"OBJECT_NAME":"STARLINK-3981","OBJECT_ID":"2022-053AH","EPOCH":"2024-10-27T19:10:02.636832","MEAN_MOTION":15.08849764,"ECCENTRICITY":0.0001348,"INCLINATION":53.2174,"RA_OF_ASC_NODE":219.247,"ARG_OF_PERICENTER":84.3089,"MEAN_ANOMALY":275.8056,"EPHEMERIS_TYPE":0,"CLASSIFICATION_TYPE":"U","NORAD_CAT_ID":52687,"ELEMENT_SET_NO":999,"REV_AT_EPOCH":13558,"BSTAR":0.00023286,"MEAN_MOTION_DOT":3.421e-5,"MEAN_MOTION_DDOT":0},{"OBJECT_NAME":"STARLINK-4032","OBJECT_ID":"2022-053AJ","EPOCH":"2024-10-27T19:04:43.362048","MEAN_MOTION":15.08854751,"ECCENTRICITY":0.0001445,"INCLINATION":53.2155,"RA_OF_ASC_NODE":219.1419,"ARG_OF_PERICENTER":95.4466,"MEAN_ANOMALY":264.6691,"EPHEMERIS_TYPE":0,"CLASSIFICATION_TYPE":"U","NORAD_CAT_ID":52688,"ELEMENT_SET_NO":999,"REV_AT_EPOCH":13558,"BSTAR":0.00033577,"MEAN_MOTION_DOT":5.062e-5,"MEAN_MOTION_DDOT":0},{"OBJECT_NAME":"STARLINK-4078","OBJECT_ID":"2022-053AK","EPOCH":"2024-10-27T18:54:09.705312","MEAN_MOTION":15.08832859,"ECCENTRICITY":0.00016,"INCLINATION":53.2178,"RA_OF_ASC_NODE":219.2891,"ARG_OF_PERICENTER":101.4173,"MEAN_ANOMALY":258.6999,"EPHEMERIS_TYPE":0,"CLASSIFICATION_TYPE":"U","NORAD_CAT_ID":52689,"ELEMENT_SET_NO":999,"REV_AT_EPOCH":13558,"BSTAR":1.0156e-5,"MEAN_MOTION_DOT":-1.26e-6,"MEAN_MOTION_DDOT":0},{"OBJECT_NAME":"STARLINK-4035","OBJECT_ID":"2022-053AL","EPOCH":"2024-10-27T11:23:42.666432","MEAN_MOTION":15.08854132,"ECCENTRICITY":0.0001471,"INCLINATION":53.2173,"RA_OF_ASC_NODE":220.6935,"ARG_OF_PERICENTER":91.0012,"MEAN_ANOMALY":269.1149,"EPHEMERIS_TYPE":0,"CLASSIFICATION_TYPE":"U","NORAD_CAT_ID":52690,"ELEMENT_SET_NO":999,"REV_AT_EPOCH":13590,"BSTAR":0.00033853,"MEAN_MOTION_DOT":5.106e-5,"MEAN_MOTION_DDOT":0}]