STARLINK-3936           
1 52674U 22053U   24301.52539815  .00002052  00000+0  14696-3 0  9991
2 52674  53.2168 230.4661 0001331  97.3563 262.7580 15.08852420135413
STARLINK-3934           
1 52675U 22053V   24301.50792442  .00002292  00000+0  16201-3 0  9997
2 52675  53.2159 220.5425 0001563  79.2200 280.8968 15.08850071135967
STARLINK-4006           
1 52676U 22053W   24301.51435495  .00000221  00000+0  31978-4 0  9990
2 52676  53.2165 230.5157 0001423  95.4679 264.6475 15.08853361135837
STARLINK-4028           
1 52677U 22053X   24301.50056036  .00002434  00000+0  17089-3 0  9994
2 52677  53.2174 220.5742 0001470  88.7620 271.3541 15.08851530135532
STARLINK-4074           
1 52678U 22053Y   24301.51897793  .00000891  00000+0  74070-4 0  9998
2 52678  53.2182 220.6015 0002079  74.3964 285.7258 15.08841749135539
STARLINK-4031           
1 52679U 22053Z   24301.75448378  .00003438  00000+0  23392-3 0  9996
2 52679  53.2166 219.4421 0001463  97.3360 262.7799 15.08849277135573
STARLINK-3774           
1 52680U 22053AA  24301.48212846  .00010749  00000+0  69180-3 0  9995
2 52680  53.2174 220.4339 0001292  81.9033 278.2106 15.08871685135943
STARLINK-4068           
1 52681U 22053AB  24301.81706238 -.00000996  00000+0 -44513-4 0  9995
2 52681  53.2180 219.1581 0001277  92.6332 267.4807 15.08816786135588
STARLINK-4017           
1 52682U 22053AC  24301.49688521  .00005798  00000+0  38196-3 0  9996
2 52682  53.2165 220.5982 0001671  82.9464 277.1718 15.08853823135941
STARLINK-4039           
1 52683U 22053AD  24301.80813127  .00156478  00000+0  92979-2 0  9994
2 52683  53.2167 219.1789 0002335  30.4653 329.6476 15.10139285135585
STARLINK-4014           
1 52684U 22053AE  24301.49319537  .00012493  00000+0  80090-3 0  9996
2 52684  53.2163 220.6135 0001060  88.2771 271.8343 15.08872282135927
STARLINK-4029           
1 52685U 22053AF  24301.47112414  .00001277  00000+0  98292-4 0  9992
2 52685  53.2176 220.7119 0002269  84.1858 275.9393 15.08843792135900
STARLINK-4005           
1 52686U 22053AG  24301.50892003  .00006498  00000+0  42588-3 0  9992
2 52686  53.2170 220.8161 0001656 100.3134 259.8045 15.08846378135919
STARLINK-3981           
1 52687U 22053AH  24301.79864163  .00003421  00000+0  23286-3 0  9997
2 52687  53.2174 219.2470 0001348  84.3089 275.8056 15.08849764135582
STARLINK-4032           
1 52688U 22053AJ  24301.79494632  .00005062  00000+0  33577-3 0  9995
2 52688  53.2155 219.1419 0001445  95.4466 264.6691 15.08854751135587
STARLINK-4078           
1 52689U 22053AK  24301.78761233 -.00000126  00000+0  10156-4 0  9995
2 52689  53.2178 219.2891 0001600 101.4173 258.6999 15.08832859135583
STARLINK-4035           
1 52690U 22053AL  24301.47479938  .00005106  00000+0  33853-3 0  9991
2 52690  53.2173 220.6935 0001471  91.0012 269.1149 15.08854132135905
